IRIDIUM 921 [-]         
1 24873U 97034E   23248.92497751  .00013224  00000+0  53398-3 0  9992
2 24873  86.3837  67.4588 0003637 248.0584 112.0276 15.24652118431539
IRIDIUM 26 [-]          
1 24903U 97043A   23249.08674428  .00000494  00000+0  16337-3 0  9999
2 24903  86.3992  23.3397 0002337  92.4660 267.6804 14.35981334363417
IRIDIUM 22 [-]          
1 24907U 97043E   23249.13310513  .00000543  00000+0  18441-3 0  9994
2 24907  86.3990  26.3302 0002105  93.3862 266.7575 14.34893067363526
DUMMY MASS 1 [-]        
1 24925U 97048A   23249.48698583  .00000489  00000+0  53065-4 0  9994
2 24925  86.3295  75.4789 0004726 297.1335  62.9406 14.85807366408621
DUMMY MASS 2 [-]        
1 24926U 97048B   23248.46727639  .00000448  00000+0  48605-4 0  9996
2 24926  86.3295  77.4450 0005865 315.1693  44.9056 14.85568423408261
IRIDIUM 33 [-]          
1 24946U 97051C   23248.92621240  .00000331  00000+0  11138-3 0  9995
2 24946  86.3844  55.7042 0009401  50.2663 309.9360 14.34098395359529
IRIDIUM 28 [-]          
1 24948U 97051E   23249.20832621  .00000528  00000+0  17413-3 0  9996
2 24948  86.3936  54.1933 0002452  85.0221 275.1256 14.36274424360510
